[{"OBJECT_NAME":"STARLINK-30276","OBJECT_ID":"2023-122W","EPOCH":"2025-12-27T16:19:51.951360","MEAN_MOTION":15.02538037,"ECCENTRICITY":0.0001376,"INCLINATION":43.0025,"RA_OF_ASC_NODE":125.5745,"ARG_OF_PERICENTER":267.1742,"MEAN_ANOMALY":92.8943,"EPHEMERIS_TYPE":0,"CLASSIFICATION_TYPE":"U","NORAD_CAT_ID":57652,"ELEMENT_SET_NO":999,"REV_AT_EPOCH":13135,"BSTAR":2.8062e-5,"MEAN_MOTION_DOT":1.75e-6,"MEAN_MOTION_DDOT":0},{"OBJECT_NAME":"STARLINK-30289","OBJECT_ID":"2023-122X","EPOCH":"2025-12-27T08:26:27.146112","MEAN_MOTION":15.02539055,"ECCENTRICITY":0.0001424,"INCLINATION":43.002,"RA_OF_ASC_NODE":114.6431,"ARG_OF_PERICENTER":272.2335,"MEAN_ANOMALY":87.8344,"EPHEMERIS_TYPE":0,"CLASSIFICATION_TYPE":"U","NORAD_CAT_ID":57653,"ELEMENT_SET_NO":999,"REV_AT_EPOCH":13145,"BSTAR":0.00015985,"MEAN_MOTION_DOT":1.956e-5,"MEAN_MOTION_DDOT":0},{"OBJECT_NAME":"STARLINK-30267","OBJECT_ID":"2023-124A","EPOCH":"2025-12-27T18:31:17.671584","MEAN_MOTION":15.30195579,"ECCENTRICITY":0.0001365,"INCLINATION":53.1601,"RA_OF_ASC_NODE":181.0799,"ARG_OF_PERICENTER":93.9409,"MEAN_ANOMALY":266.1748,"EPHEMERIS_TYPE":0,"CLASSIFICATION_TYPE":"U","NORAD_CAT_ID":57663,"ELEMENT_SET_NO":999,"REV_AT_EPOCH":13255,"BSTAR":3.1712e-5,"MEAN_MOTION_DOT":5.8e-6,"MEAN_MOTION_DDOT":0},{"OBJECT_NAME":"STARLINK-30298","OBJECT_ID":"2023-124C","EPOCH":"2025-12-26T19:03:32.533056","MEAN_MOTION":15.30194077,"ECCENTRICITY":0.00011719,"INCLINATION":53.1596,"RA_OF_ASC_NODE":185.6617,"ARG_OF_PERICENTER":79.0263,"MEAN_ANOMALY":281.0869,"EPHEMERIS_TYPE":0,"CLASSIFICATION_TYPE":"U","NORAD_CAT_ID":57665,"ELEMENT_SET_NO":999,"REV_AT_EPOCH":13240,"BSTAR":2.2719707e-5,"MEAN_MOTION_DOT":3.14e-6,"MEAN_MOTION_DDOT":0},{"OBJECT_NAME":"STARLINK-30301","OBJECT_ID":"2023-124D","EPOCH":"2025-12-27T09:42:02.375424","MEAN_MOTION":15.30186357,"ECCENTRICITY":0.0001201,"INCLINATION":53.1613,"RA_OF_ASC_NODE":244.4961,"ARG_OF_PERICENTER":101.2519,"MEAN_ANOMALY":258.8617,"EPHEMERIS_TYPE":0,"CLASSIFICATION_TYPE":"U","NORAD_CAT_ID":57666,"ELEMENT_SET_NO":999,"REV_AT_EPOCH":13160,"BSTAR":2.8874e-5,"MEAN_MOTION_DOT":4.96e-6,"MEAN_MOTION_DDOT":0},{"OBJECT_NAME":"STARLINK-30275","OBJECT_ID":"2023-124E","EPOCH":"2025-12-27T19:01:38.364096","MEAN_MOTION":15.30225957,"ECCENTRICITY":0.0001052,"INCLINATION":53.1592,"RA_OF_ASC_NODE":181.0272,"ARG_OF_PERICENTER":90.1277,"MEAN_ANOMALY":269.9844,"EPHEMERIS_TYPE":0,"CLASSIFICATION_TYPE":"U","NORAD_CAT_ID":57667,"ELEMENT_SET_NO":999,"REV_AT_EPOCH":13255,"BSTAR":-8.5009e-5,"MEAN_MOTION_DOT":-2.878e-5,"MEAN_MOTION_DDOT":0},{"OBJECT_NAME":"STARLINK-30278","OBJECT_ID":"2023-124F","EPOCH":"2025-12-27T18:54:03.093120","MEAN_MOTION":15.30195909,"ECCENTRICITY":0.000131,"INCLINATION":53.1604,"RA_OF_ASC_NODE":181.023,"ARG_OF_PERICENTER":90.4629,"MEAN_ANOMALY":269.6522,"EPHEMERIS_TYPE":0,"CLASSIFICATION_TYPE":"U","NORAD_CAT_ID":57668,"ELEMENT_SET_NO":999,"REV_AT_EPOCH":13255,"BSTAR":7.3948e-5,"MEAN_MOTION_DOT":1.831e-5,"MEAN_MOTION_DDOT":0},{"OBJECT_NAME":"STARLINK-30271","OBJECT_ID":"2023-124G","EPOCH":"2025-12-27T19:13:46.875072","MEAN_MOTION":15.30194911,"ECCENTRICITY":0.0001116,"INCLINATION":53.158,"RA_OF_ASC_NODE":180.9679,"ARG_OF_PERICENTER":96.2942,"MEAN_ANOMALY":263.8186,"EPHEMERIS_TYPE":0,"CLASSIFICATION_TYPE":"U","NORAD_CAT_ID":57669,"ELEMENT_SET_NO":999,"REV_AT_EPOCH":13255,"BSTAR":3.2139e-5,"MEAN_MOTION_DOT":5.93e-6,"MEAN_MOTION_DDOT":0},{"OBJECT_NAME":"STARLINK-30322","OBJECT_ID":"2023-124H","EPOCH":"2025-12-27T19:00:06.595200","MEAN_MOTION":15.30199174,"ECCENTRICITY":0.0001062,"INCLINATION":53.1591,"RA_OF_ASC_NODE":181.0257,"ARG_OF_PERICENTER":82.8429,"MEAN_ANOMALY":277.2692,"EPHEMERIS_TYPE":0,"CLASSIFICATION_TYPE":"U","NORAD_CAT_ID":57670,"ELEMENT_SET_NO":999,"REV_AT_EPOCH":13255,"BSTAR":2.8421e-5,"MEAN_MOTION_DOT":4.83e-6,"MEAN_MOTION_DDOT":0},{"OBJECT_NAME":"STARLINK-30296","OBJECT_ID":"2023-124J","EPOCH":"2025-12-27T17:01:47.382816","MEAN_MOTION":15.30196039,"ECCENTRICITY":0.0001279,"INCLINATION":53.1605,"RA_OF_ASC_NODE":181.3562,"ARG_OF_PERICENTER":95.1203,"MEAN_ANOMALY":264.9944,"EPHEMERIS_TYPE":0,"CLASSIFICATION_TYPE":"U","NORAD_CAT_ID":57671,"ELEMENT_SET_NO":999,"REV_AT_EPOCH":13254,"BSTAR":3.7293e-5,"MEAN_MOTION_DOT":7.45e-6,"MEAN_MOTION_DDOT":0},{"OBJECT_NAME":"STARLINK-30274","OBJECT_ID":"2023-124K","EPOCH":"2025-12-27T19:47:07.806624","MEAN_MOTION":15.30189152,"ECCENTRICITY":0.0001087,"INCLINATION":53.1602,"RA_OF_ASC_NODE":180.758,"ARG_OF_PERICENTER":84.0463,"MEAN_ANOMALY":276.0662,"EPHEMERIS_TYPE":0,"CLASSIFICATION_TYPE":"U","NORAD_CAT_ID":57672,"ELEMENT_SET_NO":999,"REV_AT_EPOCH":13256,"BSTAR":8.8257e-6,"MEAN_MOTION_DOT":-9.8e-7,"MEAN_MOTION_DDOT":0},{"OBJECT_NAME":"STARLINK-30316","OBJECT_ID":"2023-124L","EPOCH":"2025-12-27T18:43:26.789952","MEAN_MOTION":15.30196189,"ECCENTRICITY":0.0001276,"INCLINATION":53.1598,"RA_OF_ASC_NODE":181.0936,"ARG_OF_PERICENTER":78.5802,"MEAN_ANOMALY":281.5343,"EPHEMERIS_TYPE":0,"CLASSIFICATION_TYPE":"U","NORAD_CAT_ID":57673,"ELEMENT_SET_NO":999,"REV_AT_EPOCH":13255,"BSTAR":4.9424e-6,"MEAN_MOTION_DOT":-2.13e-6,"MEAN_MOTION_DDOT":0},{"OBJECT_NAME":"STARLINK-30313","OBJECT_ID":"2023-124P","EPOCH":"2025-12-27T19:51:41.482080","MEAN_MOTION":15.30188861,"ECCENTRICITY":0.0001207,"INCLINATION":53.1593,"RA_OF_ASC_NODE":180.7786,"ARG_OF_PERICENTER":97.6467,"MEAN_ANOMALY":262.4671,"EPHEMERIS_TYPE":0,"CLASSIFICATION_TYPE":"U","NORAD_CAT_ID":57676,"ELEMENT_SET_NO":999,"REV_AT_EPOCH":13256,"BSTAR":2.2704e-5,"MEAN_MOTION_DOT":3.13e-6,"MEAN_MOTION_DDOT":0},{"OBJECT_NAME":"STARLINK-30303","OBJECT_ID":"2023-124Q","EPOCH":"2025-12-27T18:49:22.583424","MEAN_MOTION":15.30195008,"ECCENTRICITY":0.0001345,"INCLINATION":53.1605,"RA_OF_ASC_NODE":180.4747,"ARG_OF_PERICENTER":87.0754,"MEAN_ANOMALY":273.04,"EPHEMERIS_TYPE":0,"CLASSIFICATION_TYPE":"U","NORAD_CAT_ID":57677,"ELEMENT_SET_NO":999,"REV_AT_EPOCH":13256,"BSTAR":2.8961e-5,"MEAN_MOTION_DOT":4.98e-6,"MEAN_MOTION_DDOT":0},{"OBJECT_NAME":"STARLINK-30320","OBJECT_ID":"2023-124R","EPOCH":"2025-12-27T17:57:04.950144","MEAN_MOTION":15.30196728,"ECCENTRICITY":0.0001116,"INCLINATION":53.1598,"RA_OF_ASC_NODE":168.212,"ARG_OF_PERICENTER":81.1607,"MEAN_ANOMALY":278.952,"EPHEMERIS_TYPE":0,"CLASSIFICATION_TYPE":"U","NORAD_CAT_ID":57678,"ELEMENT_SET_NO":999,"REV_AT_EPOCH":13273,"BSTAR":1.5495e-5,"MEAN_MOTION_DOT":1.0e-6,"MEAN_MOTION_DDOT":0},{"OBJECT_NAME":"STARLINK-30321","OBJECT_ID":"2023-124S","EPOCH":"2025-12-27T19:04:35.547168","MEAN_MOTION":15.30213093,"ECCENTRICITY":0.0001238,"INCLINATION":53.1571,"RA_OF_ASC_NODE":180.5422,"ARG_OF_PERICENTER":87.9235,"MEAN_ANOMALY":272.1907,"EPHEMERIS_TYPE":0,"CLASSIFICATION_TYPE":"U","NORAD_CAT_ID":57679,"ELEMENT_SET_NO":999,"REV_AT_EPOCH":13256,"BSTAR":0.00058782,"MEAN_MOTION_DOT":0.00017097,"MEAN_MOTION_DDOT":0},{"OBJECT_NAME":"STARLINK-30283","OBJECT_ID":"2023-124T","EPOCH":"2025-12-27T18:26:44.168064","MEAN_MOTION":15.30193167,"ECCENTRICITY":0.0001011,"INCLINATION":53.1593,"RA_OF_ASC_NODE":181.0563,"ARG_OF_PERICENTER":97.051,"MEAN_ANOMALY":263.0605,"EPHEMERIS_TYPE":0,"CLASSIFICATION_TYPE":"U","NORAD_CAT_ID":57680,"ELEMENT_SET_NO":999,"REV_AT_EPOCH":13255,"BSTAR":3.2266e-5,"MEAN_MOTION_DOT":5.97e-6,"MEAN_MOTION_DDOT":0},{"OBJECT_NAME":"STARLINK-30273","OBJECT_ID":"2023-124U","EPOCH":"2025-12-27T19:09:15.813216","MEAN_MOTION":15.30169263,"ECCENTRICITY":9.93e-5,"INCLINATION":53.1596,"RA_OF_ASC_NODE":180.9631,"ARG_OF_PERICENTER":83.2131,"MEAN_ANOMALY":276.8982,"EPHEMERIS_TYPE":0,"CLASSIFICATION_TYPE":"U","NORAD_CAT_ID":57681,"ELEMENT_SET_NO":999,"REV_AT_EPOCH":13255,"BSTAR":-8.3646e-5,"MEAN_MOTION_DOT":-2.833e-5,"MEAN_MOTION_DDOT":0},{"OBJECT_NAME":"STARLINK-30297","OBJECT_ID":"2023-124V","EPOCH":"2025-12-27T18:22:11.848224","MEAN_MOTION":15.3019015,"ECCENTRICITY":0.0001427,"INCLINATION":53.159,"RA_OF_ASC_NODE":181.1012,"ARG_OF_PERICENTER":97.6961,"MEAN_ANOMALY":262.4202,"EPHEMERIS_TYPE":0,"CLASSIFICATION_TYPE":"U","NORAD_CAT_ID":57682,"ELEMENT_SET_NO":999,"REV_AT_EPOCH":13255,"BSTAR":5.6735e-5,"MEAN_MOTION_DOT":1.321e-5,"MEAN_MOTION_DDOT":0},{"OBJECT_NAME":"STARLINK-30295","OBJECT_ID":"2023-124W","EPOCH":"2025-12-27T18:40:24.480768","MEAN_MOTION":15.3019356,"ECCENTRICITY":0.0001328,"INCLINATION":53.1603,"RA_OF_ASC_NODE":181.0926,"ARG_OF_PERICENTER":93.8861,"MEAN_ANOMALY":266.2292,"EPHEMERIS_TYPE":0,"CLASSIFICATION_TYPE":"U","NORAD_CAT_ID":57683,"ELEMENT_SET_NO":999,"REV_AT_EPOCH":13255,"BSTAR":4.1005e-5,"MEAN_MOTION_DOT":8.55e-6,"MEAN_MOTION_DDOT":0},{"OBJECT_NAME":"STARLINK-30288","OBJECT_ID":"2023-129A","EPOCH":"2025-12-27T17:40:26.707872","MEAN_MOTION":15.02536515,"ECCENTRICITY":0.0001295,"INCLINATION":43.0027,"RA_OF_ASC_NODE":151.0209,"ARG_OF_PERICENTER":266.1729,"MEAN_ANOMALY":93.8966,"EPHEMERIS_TYPE":0,"CLASSIFICATION_TYPE":"U","NORAD_CAT_ID":57698,"ELEMENT_SET_NO":999,"REV_AT_EPOCH":12983,"BSTAR":8.3266e-5,"MEAN_MOTION_DOT":9.21e-6,"MEAN_MOTION_DDOT":0},{"OBJECT_NAME":"STARLINK-30347","OBJECT_ID":"2023-129B","EPOCH":"2025-12-27T15:41:19.360320","MEAN_MOTION":15.02536275,"ECCENTRICITY":0.0001376,"INCLINATION":43.0026,"RA_OF_ASC_NODE":139.3309,"ARG_OF_PERICENTER":271.4028,"MEAN_ANOMALY":88.6657,"EPHEMERIS_TYPE":0,"CLASSIFICATION_TYPE":"U","NORAD_CAT_ID":57699,"ELEMENT_SET_NO":999,"REV_AT_EPOCH":12996,"BSTAR":1.774e-5,"MEAN_MOTION_DOT":3.6e-7,"MEAN_MOTION_DDOT":0},{"OBJECT_NAME":"STARLINK-30332","OBJECT_ID":"2023-129C","EPOCH":"2025-12-27T09:37:00.679584","MEAN_MOTION":15.02534512,"ECCENTRICITY":0.0001422,"INCLINATION":43.0038,"RA_OF_ASC_NODE":152.8034,"ARG_OF_PERICENTER":266.6709,"MEAN_ANOMALY":93.3971,"EPHEMERIS_TYPE":0,"CLASSIFICATION_TYPE":"U","NORAD_CAT_ID":57700,"ELEMENT_SET_NO":999,"REV_AT_EPOCH":12964,"BSTAR":4.0787e-5,"MEAN_MOTION_DOT":3.47e-6,"MEAN_MOTION_DDOT":0}]
